NORAD_CAT_ID,OBJECT_NAME,OBJECT_TYPE,EPOCH,MEAN_MOTION,ECCENTRICITY,INCLINATION,RA_OF_ASC_NODE,ARG_OF_PERICENTER,MEAN_ANOMALY,BSTAR,MEAN_MOTION_DOT,MEAN_MOTION_DDOT,TLE_LINE0,TLE_LINE1,TLE_LINE2,SEMIMAJOR_AXIS,PERIOD,APOGEE,PERIGEE,DECAYED
52872.0,STARLINK-4213,PAYLOAD,2022-10-22 08:00:01,15.08848368,0.0001506999999999,53.2147,155.359,89.3057,341.3302,-0.00090008,-0.00014587,0.0,0 STARLINK-4213,1 52872U 22062AU  22295.33334491 -.00014587  00000-0 -90008-3 0  9993,2 52872  53.2147 155.3590 0001507  89.3057 341.3302 15.08848368 20202,6917.855,95.437,540.762,538.677,0.0
52872.0,STARLINK-4213,PAYLOAD,2022-10-22 14:00:01,15.08835468,0.000153,53.2146,154.2362,94.0888,255.2498,0.0023081,0.00036632,0.0,0 STARLINK-4213,1 52872U 22062AU  22295.58334491  .00036632  00000-0  23081-2 0  9999,2 52872  53.2146 154.2362 0001530  94.0888 255.2498 15.08835468  1303,6917.894,95.438,540.818,538.701,0.0
52872.0,STARLINK-4213,PAYLOAD,2022-10-22 22:00:00,15.08864762,0.0001501999999999,53.2143,152.7415,85.4617,275.4864,-0.0025912,-0.00041319,0.0,0 STARLINK-4213,1 52872U 22062AU  22295.91667824 -.00041319  00000-0 -25912-2 0  9990,2 52872  53.2143 152.7415 0001502  85.4617 275.4864 15.08864762  1316,6917.805,95.436,540.7090000000002,538.631,0.0
52872.0,STARLINK-4213,PAYLOAD,2022-10-23 00:00:02,15.08839876,0.0001462,53.2143,152.3676,84.4296,9.4917,0.00017311,2.468e-05,0.0,0 STARLINK-4213,1 52872U 22062AU  22296.00002315  .00002468  00000-0  17311-3 0  9994,2 52872  53.2143 152.3676 0001462  84.4296   9.4917 15.08839876 20300,6917.880999999999,95.438,540.757,538.734,0.0
52872.0,STARLINK-4213,PAYLOAD,2022-10-23 14:00:01,15.08839422,0.0001434,53.2139,149.7469,94.918,289.2427,0.0020218,0.00032035,0.0,0 STARLINK-4213,1 52872U 22062AU  22296.58334491  .00032035  00000-0  20218-2 0  9992,2 52872  53.2139 149.7469 0001434  94.9180 289.2427 15.08839422  1302,6917.882,95.438,540.739,538.755,0.0
52872.0,STARLINK-4213,PAYLOAD,2022-10-23 22:00:00,15.0886291,0.0001434,53.2136,148.2521,84.8769,310.89,-0.0025413,-0.00040531,0.0,0 STARLINK-4213,1 52872U 22062AU  22296.91667824 -.00040531  00000-0 -25413-2 0  9992,2 52872  53.2136 148.2521 0001434  84.8769 310.8900 15.08862910  1308,6917.81,95.436,540.6669999999998,538.683,0.0
52872.0,STARLINK-4213,PAYLOAD,2022-10-24 06:00:00,15.08854892,0.0001383,53.2133,146.7546,86.2355,321.1373,-0.005613,-0.00088558,0.0,0 STARLINK-4213,1 52872U 22062AU  22297.25001157 -.00088558  00000-0 -56130-2 0  9992,2 52872  53.2133 146.7546 0001383  86.2355 321.1373 15.08854892 20495,6917.835,95.437,540.6569999999998,538.743,0.0
52872.0,STARLINK-4213,PAYLOAD,2022-10-24 14:00:01,15.08796825,0.00015,53.2133,145.2573,93.4594,325.4864,0.0014834,0.00023371,0.0,0 STARLINK-4213,1 52872U 22062AU  22297.58334491  .00023371  00000-0  14834-2 0  9993,2 52872  53.2133 145.2573 0001500  93.4594 325.4864 15.08796825  1307,6918.012,95.44,540.915,538.84,0.0
52872.0,STARLINK-4213,PAYLOAD,2022-10-24 16:00:00,15.08815165,0.0001508,53.2134,144.8836,92.0654,59.7632,-0.00076335,-0.00012408,0.0,0 STARLINK-4213,1 52872U 22062AU  22297.66667824 -.00012408  00000-0 -76335-3 0  9997,2 52872  53.2134 144.8836 0001508  92.0654  59.7632 15.08815165 20563,6917.956,95.439,540.865,538.778,0.0
52872.0,STARLINK-4213,PAYLOAD,2022-10-24 22:00:00,15.08782634,0.0001276,53.2132,143.7627,82.1613,348.3007,0.003871,0.00061762,0.0,0 STARLINK-4213,1 52872U 22062AU  22297.91667824  .00061762  00000-0  38710-2 0  9994,2 52872  53.2132 143.7627 0001276  82.1613 348.3007 15.08782634  1302,6918.056,95.441,540.803,539.038,0.0
52872.0,STARLINK-4213,PAYLOAD,2022-10-25 14:00:01,15.08831431,0.0001213,53.2133,140.7678,91.0055,2.5878,0.00090353,0.00014118,0.0,0 STARLINK-4213,1 52872U 22062AU  22298.58334491  .00014118  00000-0  90353-3 0  9994,2 52872  53.2133 140.7678 0001213  91.0055   2.5878 15.08831431  1301,6917.906999999997,95.438,540.611,538.932,0.0
52872.0,STARLINK-4213,PAYLOAD,2022-10-25 22:00:01,15.08826429,0.0001249,53.2133,139.273,79.0495,26.2012,0.0010304,0.00016143,0.0,0 STARLINK-4213,1 52872U 22062AU  22298.91668981  .00016143  00000-0  10304-2 0  9992,2 52872  53.2133 139.2730 0001249  79.0495  26.2012 15.08826429  1300,6917.922,95.438,540.651,538.923,0.0
52872.0,STARLINK-4213,PAYLOAD,2022-10-26 14:00:01,15.0885057,0.0001242,53.2137,136.2781,88.9602,39.4113,0.00053573,8.251e-05,0.0,0 STARLINK-4213,1 52872U 22062AU  22299.58334491  .00008251  00000-0  53573-3 0  9999,2 52872  53.2137 136.2781 0001242  88.9602  39.4113 15.08850570  1301,6917.848000000001,95.437,540.572,538.854,0.0
52872.0,STARLINK-4213,PAYLOAD,2022-10-26 16:00:01,15.08862807,0.0001236,53.2137,135.9046,86.4358,134.8979,-0.0011598,-0.0001871,0.0,0 STARLINK-4213,1 52872U 22062AU  22299.66668981 -.00018710  00000-0 -11598-2 0  9995,2 52872  53.2137 135.9046 0001236  86.4358 134.8979 15.08862807 20863,6917.811,95.436,540.531,538.821,0.0
52872.0,STARLINK-4213,PAYLOAD,2022-10-26 22:00:00,15.08836282,0.000127,53.2137,134.7834,77.0982,62.8848,0.0014757,0.00023273,0.0,0 STARLINK-4213,1 52872U 22062AU  22299.91667824  .00023273  00000-0  14757-2 0  9996,2 52872  53.2137 134.7834 0001270  77.0982  62.8848 15.08836282  1303,6917.892,95.438,540.635,538.878,0.0
52872.0,STARLINK-4213,PAYLOAD,2022-10-27 14:00:01,15.08853287,0.0001245,53.2142,131.7885,91.2522,72.0004,8.4924e-05,1.064e-05,0.0,0 STARLINK-4213,1 52872U 22062AU  22300.58335648  .00001064  00000-0  84924-4 0  9997,2 52872  53.2142 131.7885 0001245  91.2522  72.0004 15.08853287  1303,6917.84,95.437,540.566,538.844,0.0
52872.0,STARLINK-4213,PAYLOAD,2022-10-27 22:00:00,15.08834517,0.0001246,53.2142,130.2937,78.8156,95.9904,0.0019715,0.00031223,0.0,0 STARLINK-4213,1 52872U 22062AU  22300.91667824  .00031223  00000-0  19715-2 0  9992,2 52872  53.2142 130.2937 0001246  78.8156  95.9904 15.08834517  1308,6917.897,95.438,540.624,538.9,0.0
52872.0,STARLINK-4213,PAYLOAD,2022-10-28 14:00:01,15.08872951,0.0001296,53.2146,127.2992,91.4357,106.6547,-0.0030403,-0.00048392,0.0,0 STARLINK-4213,1 52872U 22062AU  22301.58335648 -.00048392  00000-0 -30403-2 0  9996,2 52872  53.2146 127.2992 0001296  91.4357 106.6547 15.08872951  1305,6917.78,95.435,540.5409999999998,538.748,0.0
52872.0,STARLINK-4213,PAYLOAD,2022-10-28 22:00:01,15.08818552,0.0001338,53.2145,125.8043,80.0369,129.6733,0.0024728,0.00039263,0.0,0 STARLINK-4213,1 52872U 22062AU  22301.91668981  .00039263  00000-0  24728-2 0  9990,2 52872  53.2145 125.8043 0001338  80.0369 129.6733 15.08818552 21209,6917.946,95.439,540.737,538.885,0.0
52872.0,STARLINK-4213,PAYLOAD,2022-10-29 12:00:00,15.08845922,0.0001386999999999,53.2146,123.1837,93.7656,46.1678,-0.0012003,-0.00019343,0.0,0 STARLINK-4213,1 52872U 22062AU  22302.50001157 -.00019343  00000-0 -12003-2 0  9994,2 52872  53.2146 123.1837 0001387  93.7656  46.1678 15.08845922  1307,6917.861999999999,95.437,540.687,538.768,0.0
52872.0,STARLINK-4213,PAYLOAD,2022-10-29 22:00:01,15.0880941,0.0001424,53.2146,121.3152,81.3706,163.1295,0.0028739,0.00045709,0.0,0 STARLINK-4213,1 52872U 22062AU  22302.91668981  .00045709  00000-0  28739-2 0  9999,2 52872  53.2146 121.3152 0001424  81.3706 163.1295 15.08809410  1305,6917.974,95.439,540.8240000000002,538.854,0.0
52872.0,STARLINK-4213,PAYLOAD,2022-10-30 00:00:00,15.08821008,0.0001374,53.2142,120.9409,81.0993,256.2288,0.0019809999999999,0.00031364,0.0,0 STARLINK-4213,1 52872U 22062AU  22303.00001157  .00031364  00000-0  19810-2 0  9998,2 52872  53.2142 120.9409 0001374  81.0993 256.2288 15.08821008 21361,6917.938,95.439,540.754,538.8530000000002,0.0
52872.0,STARLINK-4213,PAYLOAD,2022-10-30 14:00:01,15.0886533,0.000135,53.2146,118.3212,92.9496,174.6506,-0.0036442,-0.00057859,0.0,0 STARLINK-4213,1 52872U 22062AU  22303.58334491 -.00057859  00000-0 -36442-2 0  9990,2 52872  53.2146 118.3212 0001350  92.9496 174.6506 15.08865330  1305,6917.803000000001,95.436,540.602,538.734,0.0
52872.0,STARLINK-4213,PAYLOAD,2022-10-30 22:00:01,15.08798531,0.0001289,53.2144,116.8262,81.1288,198.1419,0.0030315,0.00048234,0.0,0 STARLINK-4213,1 52872U 22062AU  22303.91668981  .00048234  00000-0  30315-2 0  9999,2 52872  53.2144 116.8262 0001289  81.1288 198.1419 15.08798531  1303,6918.007,95.44,540.764,538.98,0.0
52872.0,STARLINK-4213,PAYLOAD,2022-10-31 14:00:01,15.08845664,0.0001284,53.2144,113.8323,91.0863,211.2599,-0.0010527,-0.00017005,0.0,0 STARLINK-4213,1 52872U 22062AU  22304.58334491 -.00017005  00000-0 -10527-2 0  9996,2 52872  53.2144 113.8323 0001284  91.0863 211.2599 15.08845664  1308,6917.863,95.437,540.616,538.84,0.0
52872.0,STARLINK-4213,PAYLOAD,2022-10-31 22:00:01,15.08815971,0.0001278,53.2143,112.3372,79.31,234.699,0.00317,0.00050491,0.0,0 STARLINK-4213,1 52872U 22062AU  22304.91668981  .00050491  00000-0  31700-2 0  9997,2 52872  53.2143 112.3372 0001278  79.3100 234.6990 15.08815971  1303,6917.954000000002,95.439,540.703,538.935,0.0
52872.0,STARLINK-4213,PAYLOAD,2022-11-01 00:00:02,15.08835811,0.0001242999999999,53.214,111.9627,78.5023,328.3977,0.0011717,0.00018407,0.0,0 STARLINK-4213,1 52872U 22062AU  22305.00002315  .00018407  00000-0  11717-2 0  9998,2 52872  53.2140 111.9627 0001243  78.5023 328.3977 15.08835811 21667,6917.893,95.438,540.618,538.898,0.0
52872.0,STARLINK-4213,PAYLOAD,2022-11-01 14:00:01,15.08837865,0.0001348,53.2162,109.3412,87.0498,250.0688,0.00077618,0.00012086,0.0,0 STARLINK-4213,1 52872U 22062AU  22305.58334491  .00012086  00000-0  77618-3 0  9994,2 52872  53.2162 109.3412 0001348  87.0498 250.0688 15.08837865 21752,6917.887,95.438,540.684,538.819,0.0
52872.0,STARLINK-4213,PAYLOAD,2022-11-01 22:00:00,15.08810156,0.0001414,53.2143,107.8479,77.3892,271.3162,0.003178,0.00050612,0.0,0 STARLINK-4213,1 52872U 22062AU  22305.91667824  .00050612  00000-0  31780-2 0  9996,2 52872  53.2143 107.8479 0001414  77.3892 271.3162 15.08810156  1307,6917.972,95.439,540.815,538.8580000000002,0.0
